{
  "type": "FeatureCollection",
  "features": [
    {
      "type": "Feature",
      "properties": {
        "norad_id": 43567,
        "name": "GSAT0220 (GALILEO 24)",
        "group": "gnss",
        "lat": -14.139077646250904,
        "lon": -22.711285707355557,
        "alt_km": 23214.268801107595,
        "timestamp": "2025-12-19T14:48:36.490656+00:00",
        "meta_object_name": "GSAT0220 (GALILEO 24)",
        "meta_object_id": "2018-060D",
        "meta_epoch": "2025-12-17T07:09:30.654144",
        "meta_mean_motion": 1.70475982,
        "meta_eccentricity": 0.00060597,
        "meta_inclination": 57.2291,
        "meta_ra_of_asc_node": 346.699,
        "meta_arg_of_pericenter": 286.0855,
        "meta_mean_anomaly": 73.8638,
        "meta_ephemeris_type": 0,
        "meta_classification_type": "U",
        "meta_norad_cat_id": 43567,
        "meta_element_set_no": 999,
        "meta_rev_at_epoch": 4607,
        "meta_bstar": 0,
        "meta_mean_motion_dot": -7.8e-07,
        "meta_mean_motion_ddot": 0,
        "tle_line1": "1 43567U 18060D   25351.29827146 -.00000078  00000+0  00000+0 0  9999",
        "tle_line2": "2 43567  57.2291 346.6990 0006059 286.0855  73.8638  1.70475982 46079"
      },
      "geometry": {
        "type": "Point",
        "coordinates": [
          -22.711285707355557,
          -14.139077646250904
        ]
      }
    },
    {
      "type": "Feature",
      "properties": {
        "norad_id": 43581,
        "name": "BEIDOU-3 M5 (C23)",
        "group": "gnss",
        "lat": -53.208372752201285,
        "lon": 84.22880184320458,
        "alt_km": 21534.54199607638,
        "timestamp": "2025-12-19T14:48:36.490667+00:00",
        "meta_object_name": "BEIDOU-3 M5 (C23)",
        "meta_object_id": "2018-062A",
        "meta_epoch": "2025-12-17T01:53:59.361792",
        "meta_mean_motion": 1.86228923,
        "meta_eccentricity": 0.00020674,
        "meta_inclination": 54.0895,
        "meta_ra_of_asc_node": 188.4955,
        "meta_arg_of_pericenter": 356.8892,
        "meta_mean_anomaly": 3.1782,
        "meta_ephemeris_type": 0,
        "meta_classification_type": "U",
        "meta_norad_cat_id": 43581,
        "meta_element_set_no": 999,
        "meta_rev_at_epoch": 5024,
        "meta_bstar": 0,
        "meta_mean_motion_dot": 1.14e-06,
        "meta_mean_motion_ddot": 0,
        "tle_line1": "1 43581U 18062A   25351.07915928  .00000114  00000+0  00000+0 0  9999",
        "tle_line2": "2 43581  54.0895 188.4955 0002067 356.8892   3.1782  1.86228923 50243"
      },
      "geometry": {
        "type": "Point",
        "coordinates": [
          84.22880184320458,
          -53.208372752201285
        ]
      }
    },
    {
      "type": "Feature",
      "properties": {
        "norad_id": 43582,
        "name": "BEIDOU-3 M6 (C24)",
        "group": "gnss",
        "lat": -5.35913420028127,
        "lon": -175.49563162124133,
        "alt_km": 21516.34825775562,
        "timestamp": "2025-12-19T14:48:36.490680+00:00",
        "meta_object_name": "BEIDOU-3 M6 (C24)",
        "meta_object_id": "2018-062B",
        "meta_epoch": "2025-12-19T02:09:37.044576",
        "meta_mean_motion": 1.86229981,
        "meta_eccentricity": 0.00078384,
        "meta_inclination": 54.0893,
        "meta_ra_of_asc_node": 188.4162,
        "meta_arg_of_pericenter": 47.7681,
        "meta_mean_anomaly": 312.3611,
        "meta_ephemeris_type": 0,
        "meta_classification_type": "U",
        "meta_norad_cat_id": 43582,
        "meta_element_set_no": 999,
        "meta_rev_at_epoch": 5028,
        "meta_bstar": 0,
        "meta_mean_motion_dot": 1.04e-06,
        "meta_mean_motion_ddot": 0,
        "tle_line1": "1 43582U 18062B   25353.09001209  .00000104  00000+0  00000+0 0  9991",
        "tle_line2": "2 43582  54.0893 188.4162 0007838  47.7681 312.3611  1.86229981 50280"
      },
      "geometry": {
        "type": "Point",
        "coordinates": [
          -175.49563162124133,
          -5.35913420028127
        ]
      }
    },
    {
      "type": "Feature",
      "properties": {
        "norad_id": 43602,
        "name": "BEIDOU-3 M12 (C26)",
        "group": "gnss",
        "lat": 27.761575361247502,
        "lon": -150.50931057773573,
        "alt_km": 21499.349852868,
        "timestamp": "2025-12-19T14:48:36.490692+00:00",
        "meta_object_name": "BEIDOU-3 M12 (C26)",
        "meta_object_id": "2018-067A",
        "meta_epoch": "2025-12-17T22:53:45.555072",
        "meta_mean_motion": 1.86227791,
        "meta_eccentricity": 0.00092249,
        "meta_inclination": 54.1833,
        "meta_ra_of_asc_node": 187.186,
        "meta_arg_of_pericenter": 41.0055,
        "meta_mean_anomaly": 319.1284,
        "meta_ephemeris_type": 0,
        "meta_classification_type": "U",
        "meta_norad_cat_id": 43602,
        "meta_element_set_no": 999,
        "meta_rev_at_epoch": 4974,
        "meta_bstar": 0,
        "meta_mean_motion_dot": 1.1e-06,
        "meta_mean_motion_ddot": 0,
        "tle_line1": "1 43602U 18067A   25351.95399948  .00000110  00000+0  00000+0 0  9999",
        "tle_line2": "2 43602  54.1833 187.1860 0009224  41.0055 319.1284  1.86227791 49749"
      },
      "geometry": {
        "type": "Point",
        "coordinates": [
          -150.50931057773573,
          27.761575361247502
        ]
      }
    },
    {
      "type": "Feature",
      "properties": {
        "norad_id": 43603,
        "name": "BEIDOU-3 M11 (C25)",
        "group": "gnss",
        "lat": -41.72125915235479,
        "lon": 146.9827124654705,
        "alt_km": 21533.845370476905,
        "timestamp": "2025-12-19T14:48:36.490703+00:00",
        "meta_object_name": "BEIDOU-3 M11 (C25)",
        "meta_object_id": "2018-067B",
        "meta_epoch": "2025-12-18T02:07:28.250688",
        "meta_mean_motion": 1.86227303,
        "meta_eccentricity": 0.00056103,
        "meta_inclination": 54.1805,
        "meta_ra_of_asc_node": 187.1455,
        "meta_arg_of_pericenter": 36.7465,
        "meta_mean_anomaly": 323.3559,
        "meta_ephemeris_type": 0,
        "meta_classification_type": "U",
        "meta_norad_cat_id": 43603,
        "meta_element_set_no": 999,
        "meta_rev_at_epoch": 4977,
        "meta_bstar": 0,
        "meta_mean_motion_dot": 1.09e-06,
        "meta_mean_motion_ddot": 0,
        "tle_line1": "1 43603U 18067B   25352.08852142  .00000109  00000+0  00000+0 0  9993",
        "tle_line2": "2 43603  54.1805 187.1455 0005610  36.7465 323.3559  1.86227303 49774"
      },
      "geometry": {
        "type": "Point",
        "coordinates": [
          146.9827124654705,
          -41.72125915235479
        ]
      }
    },
    {
      "type": "Feature",
      "properties": {
        "norad_id": 43622,
        "name": "BEIDOU-3 M13 (C32)",
        "group": "gnss",
        "lat": -21.443014537250345,
        "lon": 53.53434405248868,
        "alt_km": 21517.131976907796,
        "timestamp": "2025-12-19T14:48:36.490714+00:00",
        "meta_object_name": "BEIDOU-3 M13 (C32)",
        "meta_object_id": "2018-072A",
        "meta_epoch": "2025-12-19T02:51:12.147840",
        "meta_mean_motion": 1.86231103,
        "meta_eccentricity": 0.00060832,
        "meta_inclination": 56.4647,
        "meta_ra_of_asc_node": 68.6089,
        "meta_arg_of_pericenter": 298.8589,
        "meta_mean_anomaly": 61.1145,
        "meta_ephemeris_type": 0,
        "meta_classification_type": "U",
        "meta_norad_cat_id": 43622,
        "meta_element_set_no": 999,
        "meta_rev_at_epoch": 4930,
        "meta_bstar": 0,
        "meta_mean_motion_dot": -5.6e-07,
        "meta_mean_motion_ddot": 0,
        "tle_line1": "1 43622U 18072A   25353.11889060 -.00000056  00000+0  00000+0 0  9996",
        "tle_line2": "2 43622  56.4647  68.6089 0006083 298.8589  61.1145  1.86231103 49303"
      },
      "geometry": {
        "type": "Point",
        "coordinates": [
          53.53434405248868,
          -21.443014537250345
        ]
      }
    },
    {
      "type": "Feature",
      "properties": {
        "norad_id": 43623,
        "name": "BEIDOU-3 M14 (C33)",
        "group": "gnss",
        "lat": 48.6741063967132,
        "lon": 117.45115968118016,
        "alt_km": 21522.767919858317,
        "timestamp": "2025-12-19T14:48:36.490737+00:00",
        "meta_object_name": "BEIDOU-3 M14 (C33)",
        "meta_object_id": "2018-072B",
        "meta_epoch": "2025-12-18T10:44:15.262368",
        "meta_mean_motion": 1.8623104,
        "meta_eccentricity": 0.00033898,
        "meta_inclination": 56.4661,
        "meta_ra_of_asc_node": 68.625,
        "meta_arg_of_pericenter": 331.3053,
        "meta_mean_anomaly": 28.7068,
        "meta_ephemeris_type": 0,
        "meta_classification_type": "U",
        "meta_norad_cat_id": 43623,
        "meta_element_set_no": 999,
        "meta_rev_at_epoch": 4928,
        "meta_bstar": 0,
        "meta_mean_motion_dot": -6.3e-07,
        "meta_mean_motion_ddot": 0,
        "tle_line1": "1 43623U 18072B   25352.44739887 -.00000063  00000+0  00000+0 0  9991",
        "tle_line2": "2 43623  56.4661  68.6250 0003389 331.3053  28.7068  1.86231040 49285"
      },
      "geometry": {
        "type": "Point",
        "coordinates": [
          117.45115968118016,
          48.6741063967132
        ]
      }
    }
  ]
}